{"fetched_at":"2026-07-16T17:46:49.281Z","source":"https://celestrak.org/NORAD/elements/gp.php?NAME=NUSAT&FORMAT=JSON","constellation":"satellogic","records":[{"OBJECT_NAME":"NUSAT-47","OBJECT_ID":"2025-276CF","EPOCH":"2026-07-16T04:29:59.183520","CLASSIFICATION_TYPE":"U","MEAN_MOTION":15.20590263,"ECCENTRICITY":0.00005724,"INCLINATION":97.418,"RA_OF_ASC_NODE":270.3377,"ARG_OF_PERICENTER":195.1768,"MEAN_ANOMALY":164.945,"EPHEMERIS_TYPE":0,"NORAD_CAT_ID":66743,"ELEMENT_SET_NO":999,"REV_AT_EPOCH":3483,"BSTAR":0.0001338571,"MEAN_MOTION_DOT":0.00002864,"MEAN_MOTION_DDOT":0},{"OBJECT_NAME":"NUSAT-53 (JANE GOODALL)","OBJECT_ID":"2026-067S","EPOCH":"2026-07-16T02:58:37.181280","CLASSIFICATION_TYPE":"U","MEAN_MOTION":15.18854988,"ECCENTRICITY":0.00005038,"INCLINATION":97.4577,"RA_OF_ASC_NODE":155.2316,"ARG_OF_PERICENTER":341.2839,"MEAN_ANOMALY":18.8377,"EPHEMERIS_TYPE":0,"NORAD_CAT_ID":68432,"ELEMENT_SET_NO":999,"REV_AT_EPOCH":1633,"BSTAR":0.00013760374,"MEAN_MOTION_DOT":0.00002799,"MEAN_MOTION_DDOT":0},{"OBJECT_NAME":"NUSAT-54 (BRANCA MARQUES)","OBJECT_ID":"2026-067AC","EPOCH":"2026-07-15T20:27:36.742176","CLASSIFICATION_TYPE":"U","MEAN_MOTION":15.17999802,"ECCENTRICITY":0.00037261,"INCLINATION":97.4559,"RA_OF_ASC_NODE":154.8058,"ARG_OF_PERICENTER":358.1634,"MEAN_ANOMALY":1.9585,"EPHEMERIS_TYPE":0,"NORAD_CAT_ID":68442,"ELEMENT_SET_NO":999,"REV_AT_EPOCH":1628,"BSTAR":0.0001335369,"MEAN_MOTION_DOT":0.00002648,"MEAN_MOTION_DDOT":0}]}
