NUSAT-47                
1 66743U 25276CF  26197.18749055  .00002864  00000+0  13386-3 0  9995
2 66743  97.4180 270.3377 0000572 195.1768 164.9450 15.20590263 34837
NUSAT-53 (JANE GOODALL) 
1 68432U 26067S   26197.12404145  .00002799  00000+0  13760-3 0  9996
2 68432  97.4577 155.2316 0000503 341.2839  18.8377 15.18854988 16339
NUSAT-54 (BRANCA MARQU*)
1 68442U 26067AC  26196.85250859  .00002648  00000+0  13354-3 0  9999
2 68442  97.4559 154.8058 0003726 358.1634   1.9585 15.17999802 16280
